{"type": "FeatureCollection", "features": [ {"type": "Feature", "properties": {"norad_id": 52912, "name": "GAOFEN-12 03", "group": "resource", "lat": -28.324820585359394, "lon": 59.34103895905163, "alt_km": 637.6110815359034, "timestamp": "2025-12-22T11:33:20.087262+00:00", "meta": {"OBJECT_NAME": "GAOFEN-12 03", "OBJECT_ID": "2022-069A", "EPOCH": "2025-12-22T04:07:26.910336", "MEAN_MOTION": 14.79628443, "ECCENTRICITY": 0.000191, "INCLINATION": 97.8486, "RA_OF_ASC_NODE": 243.3025, "ARG_OF_PERICENTER": 50.6881, "MEAN_ANOMALY": 309.45, "EPHEMERIS_TYPE": 0, "CLASSIFICATION_TYPE": "U", "NORAD_CAT_ID": 52912, "ELEMENT_SET_NO": 999, "REV_AT_EPOCH": 18843, "BSTAR": 0.00010865, "MEAN_MOTION_DOT": 7.64e-06, "MEAN_MOTION_DDOT": 0}, "tle": {"line1": "1 52912U 22069A   25356.17183924  .00000764  00000+0  10865-3 0  9993", "line2": "2 52912  97.8486 243.3025 0001910  50.6881 309.4500 14.79628443188434"}}, "geometry": {"type": "Point", "coordinates": [59.34103895905163, -28.324820585359394]}}, {"type": "Feature", "properties": {"norad_id": 54754, "name": "SWOT", "group": "resource", "lat": -70.15015675170015, "lon": -123.66692033005448, "alt_km": 900.5746261861159, "timestamp": "2025-12-22T11:33:20.087272+00:00", "meta": {"OBJECT_NAME": "SWOT", "OBJECT_ID": "2022-173A", "EPOCH": "2025-12-22T03:20:08.676384", "MEAN_MOTION": 14.00168165, "ECCENTRICITY": 3.68e-05, "INCLINATION": 77.611, "RA_OF_ASC_NODE": 274.3021, "ARG_OF_PERICENTER": 85.6077, "MEAN_ANOMALY": 274.5117, "EPHEMERIS_TYPE": 0, "CLASSIFICATION_TYPE": "U", "NORAD_CAT_ID": 54754, "ELEMENT_SET_NO": 999, "REV_AT_EPOCH": 15437, "BSTAR": 1.3956e-05, "MEAN_MOTION_DOT": 1.8e-07, "MEAN_MOTION_DDOT": 0}, "tle": {"line1": "1 54754U 22173A   25356.13898931  .00000018  00000+0  13956-4 0  9999", "line2": "2 54754  77.6110 274.3021 0000368  85.6077 274.5117 14.00168165154377"}}, "geometry": {"type": "Point", "coordinates": [-123.66692033005448, -70.15015675170015]}}, {"type": "Feature", "properties": {"norad_id": 57654, "name": "GAOFEN-12 04", "group": "resource", "lat": 21.101616187204428, "lon": -90.9855558632058, "alt_km": 629.6277457400902, "timestamp": "2025-12-22T11:33:20.087282+00:00", "meta": {"OBJECT_NAME": "GAOFEN-12 04", "OBJECT_ID": "2023-123A", "EPOCH": "2025-12-22T04:58:04.516608", "MEAN_MOTION": 14.7972609, "ECCENTRICITY": 0.0001214, "INCLINATION": 97.9128, "RA_OF_ASC_NODE": 271.8208, "ARG_OF_PERICENTER": 78.0116, "MEAN_ANOMALY": 282.1231, "EPHEMERIS_TYPE": 0, "CLASSIFICATION_TYPE": "U", "NORAD_CAT_ID": 57654, "ELEMENT_SET_NO": 999, "REV_AT_EPOCH": 12645, "BSTAR": 0.00017295, "MEAN_MOTION_DOT": 1.248e-05, "MEAN_MOTION_DDOT": 0}, "tle": {"line1": "1 57654U 23123A   25356.20699672  .00001248  00000+0  17295-3 0  9991", "line2": "2 57654  97.9128 271.8208 0001214  78.0116 282.1231 14.79726090126456"}}, "geometry": {"type": "Point", "coordinates": [-90.9855558632058, 21.101616187204428]}}, {"type": "Feature", "properties": {"norad_id": 59065, "name": "PARS 1", "group": "resource", "lat": 46.1321197647156, "lon": -40.21797529713386, "alt_km": 430.57701993169576, "timestamp": "2025-12-22T11:33:20.087292+00:00", "meta": {"OBJECT_NAME": "PARS 1", "OBJECT_ID": "2024-039Q", "EPOCH": "2025-12-22T05:07:16.604832", "MEAN_MOTION": 15.41176294, "ECCENTRICITY": 0.0011888, "INCLINATION": 97.4648, "RA_OF_ASC_NODE": 327.3481, "ARG_OF_PERICENTER": 43.4352, "MEAN_ANOMALY": 316.7829, "EPHEMERIS_TYPE": 0, "CLASSIFICATION_TYPE": "U", "NORAD_CAT_ID": 59065, "ELEMENT_SET_NO": 999, "REV_AT_EPOCH": 10134, "BSTAR": 0.00031071, "MEAN_MOTION_DOT": 0.00012836, "MEAN_MOTION_DDOT": 0}, "tle": {"line1": "1 59065U 24039Q   25356.21338663  .00012836  00000+0  31071-3 0  9990", "line2": "2 59065  97.4648 327.3481 0011888  43.4352 316.7829 15.41176294101345"}}, "geometry": {"type": "Point", "coordinates": [-40.21797529713386, 46.1321197647156]}}, {"type": "Feature", "properties": {"norad_id": 59371, "name": "RESURS-P 4", "group": "resource", "lat": -54.318444644610004, "lon": 112.39173031937909, "alt_km": 477.07043078290917, "timestamp": "2025-12-22T11:33:20.087324+00:00", "meta": {"OBJECT_NAME": "RESURS-P 4", "OBJECT_ID": "2024-061A", "EPOCH": "2025-12-22T04:15:49.396320", "MEAN_MOTION": 15.32155827, "ECCENTRICITY": 9.31e-05, "INCLINATION": 97.2562, "RA_OF_ASC_NODE": 302.3146, "ARG_OF_PERICENTER": 67.8625, "MEAN_ANOMALY": 292.2715, "EPHEMERIS_TYPE": 0, "CLASSIFICATION_TYPE": "U", "NORAD_CAT_ID": 59371, "ELEMENT_SET_NO": 999, "REV_AT_EPOCH": 9665, "BSTAR": 0.00013282, "MEAN_MOTION_DOT": 4.047e-05, "MEAN_MOTION_DDOT": 0}, "tle": {"line1": "1 59371U 24061A   25356.17765505  .00004047  00000+0  13282-3 0  9998", "line2": "2 59371  97.2562 302.3146 0000931  67.8625 292.2715 15.32155827 96657"}}, "geometry": {"type": "Point", "coordinates": [112.39173031937909, -54.318444644610004]}}, {"type": "Feature", "properties": {"norad_id": 59625, "name": "LEGION 1", "group": "resource", "lat": -81.49200958472807, "lon": 133.0546682025272, "alt_km": 521.0816405911728, "timestamp": "2025-12-22T11:33:20.087335+00:00", "meta": {"OBJECT_NAME": "LEGION 1", "OBJECT_ID": "2024-081A", "EPOCH": "2025-12-22T04:00:59.905728", "MEAN_MOTION": 15.16565978, "ECCENTRICITY": 0.0003629, "INCLINATION": 97.5203, "RA_OF_ASC_NODE": 70.7257, "ARG_OF_PERICENTER": 273.9445, "MEAN_ANOMALY": 86.1373, "EPHEMERIS_TYPE": 0, "CLASSIFICATION_TYPE": "U", "NORAD_CAT_ID": 59625, "ELEMENT_SET_NO": 999, "REV_AT_EPOCH": 9070, "BSTAR": 0.00027387, "MEAN_MOTION_DOT": 5.279e-05, "MEAN_MOTION_DDOT": 0}, "tle": {"line1": "1 59625U 24081A   25356.16736002  .00005279  00000+0  27387-3 0  9990", "line2": "2 59625  97.5203  70.7257 0003629 273.9445  86.1373 15.16565978 90704"}}, "geometry": {"type": "Point", "coordinates": [133.0546682025272, -81.49200958472807]}}, {"type": "Feature", "properties": {"norad_id": 59626, "name": "LEGION 2", "group": "resource", "lat": 81.39281437762983, "lon": -48.089678499852724, "alt_km": 512.3480652978014, "timestamp": "2025-12-22T11:33:20.087346+00:00", "meta": {"OBJECT_NAME": "LEGION 2", "OBJECT_ID": "2024-081B", "EPOCH": "2025-12-22T03:13:26.063616", "MEAN_MOTION": 15.16579271, "ECCENTRICITY": 0.0005659, "INCLINATION": 97.5206, "RA_OF_ASC_NODE": 70.7808, "ARG_OF_PERICENTER": 252.7778, "MEAN_ANOMALY": 107.2835, "EPHEMERIS_TYPE": 0, "CLASSIFICATION_TYPE": "U", "NORAD_CAT_ID": 59626, "ELEMENT_SET_NO": 999, "REV_AT_EPOCH": 9070, "BSTAR": 0.00024317, "MEAN_MOTION_DOT": 4.682e-05, "MEAN_MOTION_DDOT": 0}, "tle": {"line1": "1 59626U 24081B   25356.13432944  .00004682  00000+0  24317-3 0  9993", "line2": "2 59626  97.5206  70.7808 0005659 252.7778 107.2835 15.16579271 90708"}}, "geometry": {"type": "Point", "coordinates": [-48.089678499852724, 81.39281437762983]}}, {"type": "Feature", "properties": {"norad_id": 60182, "name": "ALOS-4 (DAICHI-4)", "group": "resource", "lat": -71.8761253946629, "lon": -113.98944205471123, "alt_km": 639.162858544134, "timestamp": "2025-12-22T11:33:20.087356+00:00", "meta": {"OBJECT_NAME": "ALOS-4 (DAICHI-4)", "OBJECT_ID": "2024-123A", "EPOCH": "2025-12-20T19:27:23.067360", "MEAN_MOTION": 14.79476697, "ECCENTRICITY": 0.00013881, "INCLINATION": 97.9224, "RA_OF_ASC_NODE": 89.5428, "ARG_OF_PERICENTER": 101.339, "MEAN_ANOMALY": 258.7977, "EPHEMERIS_TYPE": 0, "CLASSIFICATION_TYPE": "U", "NORAD_CAT_ID": 60182, "ELEMENT_SET_NO": 999, "REV_AT_EPOCH": 7950, "BSTAR": 0.00018374076, "MEAN_MOTION_DOT": 1.321e-05, "MEAN_MOTION_DDOT": 0}, "tle": {"line1": "1 60182U 24123A   25354.81068365  .00001321  00000+0  18374-3 0  9997", "line2": "2 60182  97.9224  89.5428 0001388 101.3390 258.7977 14.79476697 79501"}}, "geometry": {"type": "Point", "coordinates": [-113.98944205471123, -71.8761253946629]}}, {"type": "Feature", "properties": {"norad_id": 60452, "name": "LEGION 3", "group": "resource", "lat": -18.109686863539757, "lon": 97.0073424459951, "alt_km": 512.7401960428579, "timestamp": "2025-12-22T11:33:20.087366+00:00", "meta": {"OBJECT_NAME": "LEGION 3", "OBJECT_ID": "2024-146A", "EPOCH": "2025-12-22T02:44:29.429664", "MEAN_MOTION": 15.15851241, "ECCENTRICITY": 0.0015694, "INCLINATION": 45.0011, "RA_OF_ASC_NODE": 259.8753, "ARG_OF_PERICENTER": 248.9219, "MEAN_ANOMALY": 110.9981, "EPHEMERIS_TYPE": 0, "CLASSIFICATION_TYPE": "U", "NORAD_CAT_ID": 60452, "ELEMENT_SET_NO": 999, "REV_AT_EPOCH": 7515, "BSTAR": 0.00024417, "MEAN_MOTION_DOT": 4.499e-05, "MEAN_MOTION_DDOT": 0}, "tle": {"line1": "1 60452U 24146A   25356.11422951  .00004499  00000+0  24417-3 0  9996", "line2": "2 60452  45.0011 259.8753 0015694 248.9219 110.9981 15.15851241 75159"}}, "geometry": {"type": "Point", "coordinates": [97.0073424459951, -18.109686863539757]}}, {"type": "Feature", "properties": {"norad_id": 60453, "name": "LEGION 4", "group": "resource", "lat": -17.43659754385834, "lon": -172.0235798811203, "alt_km": 525.6295766142384, "timestamp": "2025-12-22T11:33:20.087377+00:00", "meta": {"OBJECT_NAME": "LEGION 4", "OBJECT_ID": "2024-146B", "EPOCH": "2025-12-22T01:09:57.464064", "MEAN_MOTION": 15.15915063, "ECCENTRICITY": 0.0008504, "INCLINATION": 45.0392, "RA_OF_ASC_NODE": 352.0046, "ARG_OF_PERICENTER": 1.8461, "MEAN_ANOMALY": 358.2448, "EPHEMERIS_TYPE": 0, "CLASSIFICATION_TYPE": "U", "NORAD_CAT_ID": 60453, "ELEMENT_SET_NO": 999, "REV_AT_EPOCH": 7399, "BSTAR": 0.00028472, "MEAN_MOTION_DOT": 5.291e-05, "MEAN_MOTION_DDOT": 0}, "tle": {"line1": "1 60453U 24146B   25356.04858176  .00005291  00000+0  28472-3 0  9997", "line2": "2 60453  45.0392 352.0046 0008504   1.8461 358.2448 15.15915063 73998"}}, "geometry": {"type": "Point", "coordinates": [-172.0235798811203, -17.43659754385834]}}]}